[{"OBJECT_NAME":"STARLINK-31879","OBJECT_ID":"2024-106R","EPOCH":"2026-03-09T03:21:35.776224","MEAN_MOTION":15.27580603,"ECCENTRICITY":0.00014128,"INCLINATION":43.0029,"RA_OF_ASC_NODE":336.0628,"ARG_OF_PERICENTER":259.6314,"MEAN_ANOMALY":100.4379,"EPHEMERIS_TYPE":0,"CLASSIFICATION_TYPE":"U","NORAD_CAT_ID":59937,"ELEMENT_SET_NO":999,"REV_AT_EPOCH":10048,"BSTAR":-3.8391973e-5,"MEAN_MOTION_DOT":-1.318e-5,"MEAN_MOTION_DDOT":0},{"OBJECT_NAME":"OBJECT H","OBJECT_ID":"2025-155H","EPOCH":"2026-03-09T22:09:58.611456","MEAN_MOTION":15.27590961,"ECCENTRICITY":0.00081993,"INCLINATION":97.4482,"RA_OF_ASC_NODE":37.3122,"ARG_OF_PERICENTER":152.0629,"MEAN_ANOMALY":208.1051,"EPHEMERIS_TYPE":0,"CLASSIFICATION_TYPE":"U","NORAD_CAT_ID":64883,"ELEMENT_SET_NO":999,"REV_AT_EPOCH":6559,"BSTAR":0.00050403256,"MEAN_MOTION_DOT":0.00013547,"MEAN_MOTION_DDOT":0}]
